[{"OBJECT_NAME":"STARLINK-31019","OBJECT_ID":"2023-192K","EPOCH":"2026-03-09T22:33:21.694752","MEAN_MOTION":15.30131457,"ECCENTRICITY":7.979e-5,"INCLINATION":53.1607,"RA_OF_ASC_NODE":61.578,"ARG_OF_PERICENTER":106.0486,"MEAN_ANOMALY":254.0603,"EPHEMERIS_TYPE":0,"CLASSIFICATION_TYPE":"U","NORAD_CAT_ID":58540,"ELEMENT_SET_NO":999,"REV_AT_EPOCH":12602,"BSTAR":0.00050561276,"MEAN_MOTION_DOT":0.00014614,"MEAN_MOTION_DDOT":0},{"OBJECT_NAME":"FLOCK 4BE-27","OBJECT_ID":"2024-149AX","EPOCH":"2026-03-09T18:04:53.053248","MEAN_MOTION":15.32593322,"ECCENTRICITY":0.00027324,"INCLINATION":97.3862,"RA_OF_ASC_NODE":150.6783,"ARG_OF_PERICENTER":305.898,"MEAN_ANOMALY":54.2008,"EPHEMERIS_TYPE":0,"CLASSIFICATION_TYPE":"U","NORAD_CAT_ID":60513,"ELEMENT_SET_NO":999,"REV_AT_EPOCH":8690,"BSTAR":0.00036576028,"MEAN_MOTION_DOT":0.00011439,"MEAN_MOTION_DDOT":0}]
